# Made by eph2tle, compiled Jan 21 2024 20:02:10
# Run at Wed Jan 24 20:47:58 2024
#
#    The following TLEs (Two-Line Elements) were generated by fitting
# a numerically-integrated ephemeris,  based on the orbit given below,
# to the SDP4/SGP4 models.  Each TLE is good for the interval between
# its epoch and the epoch of the subsequent TLE (usually one day).
# The maximum deviation between the numerically integrated ephemerides
# and the TLE-based ephemeris, in kilometers,  is given for each TLE
# as the "worst residual".
#
#    This fitting is done using the 'eph2tle' code packaged with Find_Orb.
# The code has details on how the TLEs were computed :
#
#    https://github.com/Bill-Gray/find_orb/eph2tle.cpp
#
#    Be warned:  the error given is that between the numerically
# integrated ephems and the TLE model.  There will usually be at
# least some additional difference between the ephems and the actual
# motion of the satellite,  especially if the ephemerides are based
# on a short arc.  If the following orbital elements say something
# like "[based on] 10 observations 2015 Jan. 1-13",  and the TLEs
# are for 2015 May,  the extrapolation may be tenuous at best.  If
# your application requires a specific level of accuracy,  you may
# want to contact me;  I can give you some idea as to the fit of the
# underlying data (and possibly TLEs based on newer data).
#
#   You can usually find the underlying observational data,  and the
# fitted orbit,  residuals,  ephemerides,  and sometimes some comments
# about the object,  among the pages listed at
#
#    https://www.projectpluto.com/pluto/mpecs/pseudo.htm
#
#    Also,  if you use a TLE outside the "correct" time range (between
# its MJD and that of the next TLE),  all bets are off.  I've carefully
# computed and minimized the worst error over the "correct" time frame,
# but the ephemeris may (or may not) diverge wildly outside of it.
#
# Ephem range: 60249.000000 60383.000000 1.000000
# Created Wed Jan 24 20:47:42 2024
# Ephemeris start:  1 Nov 2023  0:00:00
# Ephemeris end:   14 Mar 2024  0:00:00
# Times are all TDT
# Positions/velocities are in ecliptic J2000
# Orbital elements:  A112FqH = A112t8l
#    Perigee 2024 Jan 22.9961489 +/- 8.7e-5 TT = 23:54:27.26 (JD 2460332.4961489)
# Epoch 2024 Jan 23.0 TT; AMR 33.588 +/- 0.0847 m^2/kg             Find_Orb
# M   1.3894781820 +/- 0.031          (J2000 equator)
# n 360.8035228470 +/- 0.000495       Peri.  318.0122057 +/- 0.009
# a 42178.357155 +/- 0.0386           Node    14.1487531 +/- 0.0013
# e   0.587035218 +/- 5.31e-5         Incl.   33.8777779 +/- 0.0006
# P1436.766m/0.998d          H 28.93  G  0.15   U  7.6
# q 17418.176032 +/- 2.24    Q 66938.538278 +/- 2.23
# From 33 observations 2024 Jan. 15-23; mean residual 4".132
#
# 1 NoradU COSPAR   Epoch.epoch     dn/dt/2  d2n/dt2/6 BSTAR    T El# C
# 2 NoradU Inclina RAAscNode Eccent  ArgPeri MeanAno  MeanMotion Rev# C

# Worst residual: 51.36 km
# MJD 60249.000000 (2023 Nov  1  0:00)
A112FqH = A112t8l
1 79944U 24999ZZY 23305.49919926  .00000000  00000-0  00000-0 0 22162
2 79944 032.6072 018.6912 2156849 272.1031 307.8389 00.99327489    02

# Worst residual: 54.63 km
# MJD 60250.000000 (2023 Nov  2  0:00)
A112FqH = A112t8l
1 79944U 24999ZZY 23306.49919926  .00000000  00000-0  00000-0 0 22163
2 79944 032.6071 018.6845 2216847 272.7163 304.0379 00.99340274    08

# Worst residual: 58.06 km
# MJD 60251.000000 (2023 Nov  3  0:00)
A112FqH = A112t8l
1 79944U 24999ZZY 23307.49919926  .00000000  00000-0  00000-0 0 22164
2 79944 032.6070 018.6772 2276523 273.3206 300.2943 00.99352265    06

# Worst residual: 61.60 km
# MJD 60252.000000 (2023 Nov  4  0:00)
A112FqH = A112t8l
1 79944U 24999ZZY 23308.49919926  .00000000  00000-0  00000-0 0 22165
2 79944 032.6069 018.6694 2335874 273.9155 296.6101 00.99363557    01

# Worst residual: 64.42 km
# MJD 60253.000000 (2023 Nov  5  0:00)
A112FqH = A112t8l
1 79944U 24999ZZY 23309.49919926  .00000000  00000-0  00000-0 0 22166
2 79944 032.6095 018.6549 2395031 274.4997 292.9905 00.99371095    07

# Worst residual: 68.88 km
# MJD 60254.000000 (2023 Nov  6  0:00)
A112FqH = A112t8l
1 79944U 24999ZZY 23310.49919926  .00000000  00000-0  00000-0 0 22168
2 79944 032.6069 018.6522 2453648 275.0793 289.4251 00.99384544    07

# Worst residual: 72.59 km
# MJD 60255.000000 (2023 Nov  7  0:00)
A112FqH = A112t8l
1 79944U 24999ZZY 23311.49919926  .00000000  00000-0  00000-0 0 22169
2 79944 032.6070 018.6428 2512101 275.6497 285.9260 00.99394532    00

# Worst residual: 76.32 km
# MJD 60256.000000 (2023 Nov  8  0:00)
A112FqH = A112t8l
1 79944U 24999ZZY 23312.49919926  .00000000  00000-0  00000-0 0 22160
2 79944 032.6071 018.6328 2570286 276.2140 282.4897 00.99404371    01

# Worst residual: 78.99 km
# MJD 60257.000000 (2023 Nov  9  0:00)
A112FqH = A112t8l
1 79944U 24999ZZY 23313.49919926  .00000000  00000-0  00000-0 0 22161
2 79944 032.6023 018.6140 2628247 276.7679 279.1281 00.99418217    07

# Worst residual: 83.47 km
# MJD 60258.000000 (2023 Nov 10  0:00)
A112FqH = A112t8l
1 79944U 24999ZZY 23314.49919926  .00000000  00000-0  00000-0 0 22162
2 79944 032.6061 018.6168 2685353 277.3274 275.8052 00.99423090    02

# Worst residual: 87.39 km
# MJD 60259.000000 (2023 Nov 11  0:00)
A112FqH = A112t8l
1 79944U 24999ZZY 23315.49919926  .00000000  00000-0  00000-0 0 22163
2 79944 032.6078 018.5991 2743307 277.8822 272.5609 00.99433851    09

# Worst residual: 86.66 km
# MJD 60260.000000 (2023 Nov 12  0:00)
A112FqH = A112t8l
1 79944U 24999ZZY 23316.49919926  .00000000  00000-0  00000-0 0 22164
2 79944 032.6121 018.5749 2800143 278.4395 269.3799 00.99442971    00

# Worst residual: 92.10 km
# MJD 60261.000000 (2023 Nov 13  0:00)
A112FqH = A112t8l
1 79944U 24999ZZY 23317.49919926  .00000000  00000-0  00000-0 0 22165
2 79944 032.6043 018.5895 2856585 278.9644 266.2697 00.99452214    02

# Worst residual: 96.99 km
# MJD 60262.000000 (2023 Nov 14  0:00)
A112FqH = A112t8l
1 79944U 24999ZZY 23318.49919926  .00000000  00000-0  00000-0 0 22166
2 79944 032.6090 018.5578 2913682 279.5358 263.2106 00.99463207    09

# Worst residual: 97.97 km
# MJD 60263.000000 (2023 Nov 15  0:00)
A112FqH = A112t8l
1 79944U 24999ZZY 23319.49919926  .00000000  00000-0  00000-0 0 22167
2 79944 032.6113 018.5458 2970107 280.0671 260.2412 00.99472365    04

# Worst residual: 101.48 km
# MJD 60264.000000 (2023 Nov 16  0:00)
A112FqH = A112t8l
1 79944U 24999ZZY 23320.49919926  .00000000  00000-0  00000-0 0 22169
2 79944 032.6105 018.5257 3025282 280.6347 257.3143 00.99482526    02

# Worst residual: 101.12 km
# MJD 60265.000000 (2023 Nov 17  0:00)
A112FqH = A112t8l
1 79944U 24999ZZY 23321.49919926  .00000000  00000-0  00000-0 0 22160
2 79944 032.6117 018.5037 3080035 281.2076 254.4444 00.99495077    01

# Worst residual: 103.37 km
# MJD 60266.000000 (2023 Nov 18  0:00)
A112FqH = A112t8l
1 79944U 24999ZZY 23322.49919926  .00000000  00000-0  00000-0 0 22161
2 79944 032.6161 018.4814 3135345 281.7154 251.7260 00.99496647    09

# Worst residual: 103.42 km
# MJD 60267.000000 (2023 Nov 19  0:00)
A112FqH = A112t8l
1 79944U 24999ZZY 23323.49919926  .00000000  00000-0  00000-0 0 22162
2 79944 032.6110 018.4766 3189148 282.2738 249.0006 00.99511514    02

# Worst residual: 105.25 km
# MJD 60268.000000 (2023 Nov 20  0:00)
A112FqH = A112t8l
1 79944U 24999ZZY 23324.49919926  .00000000  00000-0  00000-0 0 22163
2 79944 032.6154 018.4504 3243602 282.8171 246.3909 00.99522836    04

# Worst residual: 104.76 km
# MJD 60269.000000 (2023 Nov 21  0:00)
A112FqH = A112t8l
1 79944U 24999ZZY 23325.49919926  .00000000  00000-0  00000-0 0 22164
2 79944 032.6144 018.4288 3297120 283.3756 243.8257 00.99534429    00

# Worst residual: 104.73 km
# MJD 60270.000000 (2023 Nov 22  0:00)
A112FqH = A112t8l
1 79944U 24999ZZY 23326.49919926  .00000000  00000-0  00000-0 0 22165
2 79944 032.6189 018.4062 3350510 283.9059 241.3796 00.99545364    05

# Worst residual: 104.20 km
# MJD 60271.000000 (2023 Nov 23  0:00)
A112FqH = A112t8l
1 79944U 24999ZZY 23327.49919926  .00000000  00000-0  00000-0 0 22166
2 79944 032.6211 018.3822 3403403 284.4496 238.9908 00.99557816    07

# Worst residual: 103.72 km
# MJD 60272.000000 (2023 Nov 24  0:00)
A112FqH = A112t8l
1 79944U 24999ZZY 23328.49919926  .00000000  00000-0  00000-0 0 22167
2 79944 032.6236 018.3570 3455970 284.9921 236.6818 00.99571098    01

# Worst residual: 103.36 km
# MJD 60273.000000 (2023 Nov 25  0:00)
A112FqH = A112t8l
1 79944U 24999ZZY 23329.49919926  .00000000  00000-0  00000-0 0 22168
2 79944 032.6264 018.3306 3508263 285.5331 234.4533 00.99584930    04

# Worst residual: 103.02 km
# MJD 60274.000000 (2023 Nov 26  0:00)
A112FqH = A112t8l
1 79944U 24999ZZY 23330.49919926  .00000000  00000-0  00000-0 0 22160
2 79944 032.6295 018.3031 3560314 286.0734 232.3050 00.99598887    08

# Worst residual: 102.45 km
# MJD 60275.000000 (2023 Nov 27  0:00)
A112FqH = A112t8l
1 79944U 24999ZZY 23331.49919926  .00000000  00000-0  00000-0 0 22161
2 79944 032.6328 018.2742 3612108 286.6143 230.2363 00.99612603    09

# Worst residual: 100.43 km
# MJD 60276.000000 (2023 Nov 28  0:00)
A112FqH = A112t8l
1 79944U 24999ZZY 23332.49919926  .00000000  00000-0  00000-0 0 22162
2 79944 032.6381 018.2321 3663384 287.1578 228.2660 00.99624311    07

# Worst residual: 99.51 km
# MJD 60277.000000 (2023 Nov 29  0:00)
A112FqH = A112t8l
1 79944U 24999ZZY 23333.49919926  .00000000  00000-0  00000-0 0 22163
2 79944 032.6356 018.2125 3714551 287.7096 226.3228 00.99642898    04

# Worst residual: 97.56 km
# MJD 60278.000000 (2023 Nov 30  0:00)
A112FqH = A112t8l
1 79944U 24999ZZY 23334.49919926  .00000000  00000-0  00000-0 0 22164
2 79944 032.6443 018.1787 3765255 288.2514 224.5007 00.99652369    01

# Worst residual: 95.00 km
# MJD 60279.000000 (2023 Dec  1  0:00)
A112FqH = A112t8l
1 79944U 24999ZZY 23335.49919926  .00000000  00000-0  00000-0 0 22165
2 79944 032.6489 018.1437 3815339 288.8016 222.7472 00.99666050    03
